OBJECT B                
1 51825U 22019B   26089.59081957  .00087803  00000+0  91206-3 0  9990
2 51825  97.3509 177.7721 0005841  63.0082 297.1773 15.64326162227435
